{
  "links" : {
    "next" : "https://api.nasa.gov/neo/rest/v1/feed?start_date=2004-04-16&end_date=2004-04-16&detailed=true&api_key=t0TVs3DtDT2H8Oy2Zy8m2eVrNsAVKAexjcZXUckd",
    "prev" : "https://api.nasa.gov/neo/rest/v1/feed?start_date=2004-04-14&end_date=2004-04-14&detailed=true&api_key=t0TVs3DtDT2H8Oy2Zy8m2eVrNsAVKAexjcZXUckd",
    "self" : "https://api.nasa.gov/neo/rest/v1/feed?start_date=2004-04-15&end_date=2004-04-15&detailed=true&api_key=t0TVs3DtDT2H8Oy2Zy8m2eVrNsAVKAexjcZXUckd"
  },
  "element_count" : 8,
  "near_earth_objects" : {
    "2004-04-15" : [ {
      "links" : {
        "self" : "https://api.nasa.gov/neo/rest/v1/neo/3736681?api_key=t0TVs3DtDT2H8Oy2Zy8m2eVrNsAVKAexjcZXUckd"
      },
      "neo_reference_id" : "3736681",
      "name" : "(2015 XF352)",
      "nasa_jpl_url" : "http://ssd.jpl.nasa.gov/sbdb.cgi?sstr=3736681",
      "absolute_magnitude_h" : 21.2,
      "estimated_diameter" : {
        "kilometers" : {
          "estimated_diameter_min" : 0.1529519353,
          "estimated_diameter_max" : 0.3420109247
        },
        "meters" : {
          "estimated_diameter_min" : 152.9519353442,
          "estimated_diameter_max" : 342.0109247198
        },
        "miles" : {
          "estimated_diameter_min" : 0.095039897,
          "estimated_diameter_max" : 0.2125156703
        },
        "feet" : {
          "estimated_diameter_min" : 501.8108275547,
          "estimated_diameter_max" : 1122.0831222578
        }
      },
      "is_potentially_hazardous_asteroid" : false,
      "close_approach_data" : [ {
        "close_approach_date" : "2004-04-15",
        "epoch_date_close_approach" : 1082012400000,
        "relative_velocity" : {
          "kilometers_per_second" : "21.754283489",
          "kilometers_per_hour" : "78315.4205603726",
          "miles_per_hour" : "48662.1567365271"
        },
        "miss_distance" : {
          "astronomical" : "0.2167921653",
          "lunar" : "84.3321533203",
          "kilometers" : "32431646",
          "miles" : "20152090"
        },
        "orbiting_body" : "Earth"
      } ],
      "orbital_data" : {
        "orbit_id" : "14",
        "orbit_determination_date" : "2017-04-06 08:29:52",
        "orbit_uncertainty" : "7",
        "minimum_orbit_intersection" : ".0648543",
        "jupiter_tisserand_invariant" : "5.003",
        "epoch_osculation" : "2458000.5",
        "eccentricity" : ".4968008238937052",
        "semi_major_axis" : "1.252928596236315",
        "inclination" : "3.915982915369544",
        "ascending_node_longitude" : "301.5112848954225",
        "orbital_period" : "512.2570086477867",
        "perihelion_distance" : ".6304726373461301",
        "perihelion_argument" : "11.07935065508821",
        "aphelion_distance" : "1.875384555126499",
        "perihelion_time" : "2457776.394373651607",
        "mean_anomaly" : "157.4952106529274",
        "mean_motion" : ".7027722294133134",
        "equinox" : "J2000"
      }
    }, {
      "links" : {
        "self" : "https://api.nasa.gov/neo/rest/v1/neo/3773991?api_key=t0TVs3DtDT2H8Oy2Zy8m2eVrNsAVKAexjcZXUckd"
      },
      "neo_reference_id" : "3773991",
      "name" : "(2017 GB8)",
      "nasa_jpl_url" : "http://ssd.jpl.nasa.gov/sbdb.cgi?sstr=3773991",
      "absolute_magnitude_h" : 19.845,
      "estimated_diameter" : {
        "kilometers" : {
          "estimated_diameter_min" : 0.2854663858,
          "estimated_diameter_max" : 0.6383222439
        },
        "meters" : {
          "estimated_diameter_min" : 285.4663858003,
          "estimated_diameter_max" : 638.3222439407
        },
        "miles" : {
          "estimated_diameter_min" : 0.1773805336,
          "estimated_diameter_max" : 0.396634931
        },
        "feet" : {
          "estimated_diameter_min" : 936.5695371891,
          "estimated_diameter_max" : 2094.2331508103
        }
      },
      "is_potentially_hazardous_asteroid" : false,
      "close_approach_data" : [ {
        "close_approach_date" : "2004-04-15",
        "epoch_date_close_approach" : 1082012400000,
        "relative_velocity" : {
          "kilometers_per_second" : "29.1878631099",
          "kilometers_per_hour" : "105076.307195478",
          "miles_per_hour" : "65290.3309904347"
        },
        "miss_distance" : {
          "astronomical" : "0.2512217812",
          "lunar" : "97.7252731323",
          "kilometers" : "37582244",
          "miles" : "23352524"
        },
        "orbiting_body" : "Earth"
      } ],
      "orbital_data" : {
        "orbit_id" : "19",
        "orbit_determination_date" : "2017-05-30 06:17:56",
        "orbit_uncertainty" : "6",
        "minimum_orbit_intersection" : ".116804",
        "jupiter_tisserand_invariant" : "4.209",
        "epoch_osculation" : "2458000.5",
        "eccentricity" : ".7025354781313072",
        "semi_major_axis" : "1.506667936361974",
        "inclination" : "9.413355656157256",
        "ascending_node_longitude" : "60.8793995393068",
        "orbital_period" : "675.4990553011252",
        "perihelion_distance" : ".4481802573048047",
        "perihelion_argument" : "24.66070621986279",
        "aphelion_distance" : "2.565155615419143",
        "perihelion_time" : "2457796.061094714277",
        "mean_anomaly" : "108.9535289876188",
        "mean_motion" : ".532939309351837",
        "equinox" : "J2000"
      }
    } ]
  }
}